{
    "links": {
        "self": "http://www.neowsapp.com/rest/v1/neo/3727063?api_key=iIulBulltgU6a56xZRHN4H3l9WmuAYTsLGpBGhQ2"
    },
    "id": "3727063",
    "neo_reference_id": "3727063",
    "name": "(2015 RX35)",
    "designation": "2015 RX35",
    "nasa_jpl_url": "http://ssd.jpl.nasa.gov/sbdb.cgi?sstr=3727063",
    "absolute_magnitude_h": 26.6,
    "estimated_diameter": {
        "kilometers": {
            "estimated_diameter_min": 0.0127219879,
            "estimated_diameter_max": 0.0284472297
        },
        "meters": {
            "estimated_diameter_min": 12.7219878539,
            "estimated_diameter_max": 28.4472296503
        },
        "miles": {
            "estimated_diameter_min": 0.0079050743,
            "estimated_diameter_max": 0.0176762835
        },
        "feet": {
            "estimated_diameter_min": 41.7388066307,
            "estimated_diameter_max": 93.330808926
        }
    },
    "is_potentially_hazardous_asteroid": false,
    "close_approach_data": [
        {
            "close_approach_date": "2015-08-31",
            "close_approach_date_full": "2015-Aug-31 08:07",
            "epoch_date_close_approach": 1441008420000,
            "relative_velocity": {
                "kilometers_per_second": "6.8094146827",
                "kilometers_per_hour": "24513.8928576002",
                "miles_per_hour": "15231.9797036572"
            },
            "miss_distance": {
                "astronomical": "0.0100934877",
                "lunar": "3.9263667153",
                "kilometers": "1509964.260791199",
                "miles": "938248.2845045862"
            },
            "orbiting_body": "Earth"
        },
        {
            "close_approach_date": "2059-04-26",
            "close_approach_date_full": "2059-Apr-26 16:08",
            "epoch_date_close_approach": 2818598880000,
            "relative_velocity": {
                "kilometers_per_second": "5.5087688005",
                "kilometers_per_hour": "19831.5676819733",
                "miles_per_hour": "12322.5649299461"
            },
            "miss_distance": {
                "astronomical": "0.098700736",
                "lunar": "38.394586304",
                "kilometers": "14765419.87303232",
                "miles": "9174806.467673216"
            },
            "orbiting_body": "Mars"
        },
        {
            "close_approach_date": "2061-03-08",
            "close_approach_date_full": "2061-Mar-08 00:13",
            "epoch_date_close_approach": 2877466380000,
            "relative_velocity": {
                "kilometers_per_second": "8.2362894477",
                "kilometers_per_hour": "29650.6420115695",
                "miles_per_hour": "18423.7558654666"
            },
            "miss_distance": {
                "astronomical": "0.0957459349",
                "lunar": "37.2451686761",
                "kilometers": "14323387.922198663",
                "miles": "8900140.5498530294"
            },
            "orbiting_body": "Mars"
        },
        {
            "close_approach_date": "2061-09-17",
            "close_approach_date_full": "2061-Sep-17 05:34",
            "epoch_date_close_approach": 2894160840000,
            "relative_velocity": {
                "kilometers_per_second": "10.0932754689",
                "kilometers_per_hour": "36335.7916881682",
                "miles_per_hour": "22577.647896462"
            },
            "miss_distance": {
                "astronomical": "0.1026477131",
                "lunar": "39.9299603959",
                "kilometers": "15355879.240131097",
                "miles": "9541700.9052672586"
            },
            "orbiting_body": "Earth"
        }
    ],
    "orbital_data": {
        "orbit_id": "7",
        "orbit_determination_date": "2017-04-06 08:32:06",
        "first_observation_date": "2015-09-09",
        "last_observation_date": "2015-09-17",
        "data_arc_in_days": 8,
        "observations_used": 17,
        "orbit_uncertainty": "8",
        "minimum_orbit_intersection": ".00449842",
        "jupiter_tisserand_invariant": "4.465",
        "epoch_osculation": "2457278.5",
        "eccentricity": ".3549556560856942",
        "semi_major_axis": "1.503503521416152",
        "inclination": "2.980625513153076",
        "ascending_node_longitude": "164.5104088763709",
        "orbital_period": "673.3720738042041",
        "perihelion_distance": ".9698264425447302",
        "perihelion_argument": "143.1803875613819",
        "aphelion_distance": "2.037180600287574",
        "perihelion_time": "2457240.165833636403",
        "mean_anomaly": "20.49431573978166",
        "mean_motion": ".5346227056405622",
        "equinox": "J2000",
        "orbit_class": {
            "orbit_class_type": "APO",
            "orbit_class_description": "Near-Earth asteroid orbits which cross the Earth’s orbit similar to that of 1862 Apollo",
            "orbit_class_range": "a (semi-major axis) > 1.0 AU; q (perihelion) < 1.017 AU"
        }
    },
    "is_sentry_object": false
}